
# Worst residual: 112.67 km
# MJD 59879.000000 (2022 Oct 27  0:00)
A10OETG = A10O3K7 = A10KzS9
1 79981U 22999ZZG 22300.49919926  .00000000  00000-0  00000-0 0 17585
2 79981 025.5820 295.6643 8167301 277.3730 173.0191 00.85811753    08

# Worst residual: 207.30 km
# MJD 59880.000000 (2022 Oct 28  0:00)
A10OETG = A10O3K7 = A10KzS9
1 79981U 22999ZZG 22301.49919926  .00000000  00000-0  00000-0 0 17586
2 79981 025.6217 294.8957 8186802 278.9308 121.9532 00.86062220    02

# Worst residual: 259.95 km
# MJD 59881.000000 (2022 Oct 29  0:00)
A10OETG = A10O3K7 = A10KzS9
1 79981U 22999ZZG 22302.49919926  .00000000  00000-0  00000-0 0 17587
2 79981 025.6909 294.1991 8198256 280.3605 070.7176 00.86424420    03

# Worst residual: 192.70 km
# MJD 59882.000000 (2022 Oct 30  0:00)
A10OETG = A10O3K7 = A10KzS9
1 79981U 22999ZZG 22303.49919926  .00000000  00000-0  00000-0 0 17588
2 79981 025.7755 293.2382 8196255 282.0906 019.0839 00.86751879    00

# Worst residual: 285.45 km
# MJD 59883.000000 (2022 Oct 31  0:00)
A10OETG = A10O3K7 = A10KzS9
1 79981U 22999ZZG 22304.49919926  .00000000  00000-0  00000-0 0 17589
2 79981 025.8426 292.3768 8202273 283.7605 327.2129 00.86511411    08

# Worst residual: 294.21 km
# MJD 59884.000000 (2022 Nov  1  0:00)
A10OETG = A10O3K7 = A10KzS9
1 79981U 22999ZZG 22305.49919926  .00000000  00000-0  00000-0 0 17580
2 79981 025.8915 291.6649 8196509 285.1862 275.8433 00.86100071    08

# Worst residual: 91.16 km
# MJD 59885.000000 (2022 Nov  2  0:00)
A10OETG = A10O3K7 = A10KzS9
1 79981U 22999ZZG 22306.49919926  .00000000  00000-0  00000-0 0 17581
2 79981 025.9436 291.0104 8179258 286.6324 224.6085 00.85817056    00

# Worst residual: 103.25 km
# MJD 59886.000000 (2022 Nov  3  0:00)
A10OETG = A10O3K7 = A10KzS9
1 79981U 22999ZZG 22307.49919926  .00000000  00000-0  00000-0 0 17582
2 79981 026.0134 290.4068 8180603 288.1037 173.4792 00.85813648    02

# Worst residual: 232.53 km
# MJD 59887.000000 (2022 Nov  4  0:00)
A10OETG = A10O3K7 = A10KzS9
1 79981U 22999ZZG 22308.49919926  .00000000  00000-0  00000-0 0 17583
2 79981 026.0947 289.7861 8197056 289.5221 122.3754 00.86048526    03

# Worst residual: 275.63 km
# MJD 59888.000000 (2022 Nov  5  0:00)
A10OETG = A10O3K7 = A10KzS9
1 79981U 22999ZZG 22309.49919926  .00000000  00000-0  00000-0 0 17584
2 79981 026.1802 289.2776 8207835 290.7882 071.1188 00.86425900    05

# Worst residual: 205.34 km
# MJD 59889.000000 (2022 Nov  6  0:00)
A10OETG = A10O3K7 = A10KzS9
1 79981U 22999ZZG 22310.49919926  .00000000  00000-0  00000-0 0 17586
2 79981 026.2804 288.6273 8205767 292.2418 019.4284 00.86744853    00

# Worst residual: 277.40 km
# MJD 59890.000000 (2022 Nov  7  0:00)
A10OETG = A10O3K7 = A10KzS9
1 79981U 22999ZZG 22311.49919926  .00000000  00000-0  00000-0 0 17587
2 79981 026.3697 288.0111 8211364 293.6984 327.4936 00.86502680    05

# Worst residual: 288.09 km
# MJD 59891.000000 (2022 Nov  8  0:00)
A10OETG = A10O3K7 = A10KzS9
1 79981U 22999ZZG 22312.49919926  .00000000  00000-0  00000-0 0 17588
2 79981 026.4347 287.5119 8204799 294.9412 276.0596 00.86084476    03

# Worst residual: 89.93 km
# MJD 59892.000000 (2022 Nov  9  0:00)
A10OETG = A10O3K7 = A10KzS9
1 79981U 22999ZZG 22313.49919926  .00000000  00000-0  00000-0 0 17589
2 79981 026.4920 287.0985 8186073 296.1808 224.7553 00.85801012    08

# Worst residual: 87.47 km
# MJD 59893.000000 (2022 Nov 10  0:00)
A10OETG = A10O3K7 = A10KzS9
1 79981U 22999ZZG 22314.49919926  .00000000  00000-0  00000-0 0 17580
2 79981 026.5596 286.6967 8186417 297.4877 173.5656 00.85791189    03

# Worst residual: 251.06 km
# MJD 59894.000000 (2022 Nov 11  0:00)
A10OETG = A10O3K7 = A10KzS9
1 79981U 22999ZZG 22315.49919926  .00000000  00000-0  00000-0 0 17581
2 79981 026.6186 286.3584 8202371 298.6578 122.4105 00.86049785    01

# Worst residual: 266.54 km
# MJD 59895.000000 (2022 Nov 12  0:00)
A10OETG = A10O3K7 = A10KzS9
1 79981U 22999ZZG 22316.49919926  .00000000  00000-0  00000-0 0 17582
2 79981 026.7037 285.9773 8211012 299.8305 071.0711 00.86401211    03

# Worst residual: 199.57 km
# MJD 59896.000000 (2022 Nov 13  0:00)
A10OETG = A10O3K7 = A10KzS9
1 79981U 22999ZZG 22317.49919926  .00000000  00000-0  00000-0 0 17583
2 79981 026.7602 285.6463 8207173 300.9937 019.3653 00.86756452    02

# Worst residual: 261.48 km
# MJD 59897.000000 (2022 Nov 14  0:00)
A10OETG = A10O3K7 = A10KzS9
1 79981U 22999ZZG 22318.49919926  .00000000  00000-0  00000-0 0 17584
2 79981 026.8188 285.3471 8210944 302.1536 327.4337 00.86495278    05

# Worst residual: 257.11 km
# MJD 59898.000000 (2022 Nov 15  0:00)
A10OETG = A10O3K7 = A10KzS9
1 79981U 22999ZZG 22319.49919926  .00000000  00000-0  00000-0 0 17585
2 79981 026.8559 285.1175 8203450 303.1214 276.2081 00.86104856    00

# Worst residual: 79.31 km
# MJD 59899.000000 (2022 Nov 16  0:00)
A10OETG = A10O3K7 = A10KzS9
1 79981U 22999ZZG 22320.49919926  .00000000  00000-0  00000-0 0 17587
2 79981 026.8794 284.9095 8186577 304.1322 225.1163 00.85863820    06

# Worst residual: 70.97 km
# MJD 59900.000000 (2022 Nov 17  0:00)
A10OETG = A10O3K7 = A10KzS9
1 79981U 22999ZZG 22321.49919926  .00000000  00000-0  00000-0 0 17588
2 79981 026.9082 284.7312 8187323 305.1832 174.1572 00.85858635    09

# Worst residual: 251.27 km
# MJD 59901.000000 (2022 Nov 18  0:00)
A10OETG = A10O3K7 = A10KzS9
1 79981U 22999ZZG 22322.49919926  .00000000  00000-0  00000-0 0 17589
2 79981 026.9520 284.5131 8201805 306.1983 123.2380 00.86062963    07

# Worst residual: 281.37 km
# MJD 59902.000000 (2022 Nov 19  0:00)
A10OETG = A10O3K7 = A10KzS9
1 79981U 22999ZZG 22323.49919926  .00000000  00000-0  00000-0 0 17580
2 79981 026.9420 284.4481 8210416 307.0087 072.2049 00.86399122    01

# Worst residual: 220.10 km
# MJD 59903.000000 (2022 Nov 20  0:00)
A10OETG = A10O3K7 = A10KzS9
1 79981U 22999ZZG 22324.49919926  .00000000  00000-0  00000-0 0 17581
2 79981 026.9475 284.3377 8206502 307.9032 020.8084 00.86702131    00

# Worst residual: 236.65 km
# MJD 59904.000000 (2022 Nov 21  0:00)
A10OETG = A10O3K7 = A10KzS9
1 79981U 22999ZZG 22325.49919926  .00000000  00000-0  00000-0 0 17582
2 79981 026.9228 284.3330 8209713 308.7322 329.1532 00.86450829    00

# Worst residual: 231.24 km
# MJD 59905.000000 (2022 Nov 22  0:00)
A10OETG = A10O3K7 = A10KzS9
1 79981U 22999ZZG 22326.49919926  .00000000  00000-0  00000-0 0 17583
2 79981 026.9233 284.2112 8202046 309.5742 277.9300 00.86078755    07

# Worst residual: 73.31 km
# MJD 59906.000000 (2022 Nov 23  0:00)
A10OETG = A10O3K7 = A10KzS9
1 79981U 22999ZZG 22327.49919926  .00000000  00000-0  00000-0 0 17584
2 79981 026.9022 284.1747 8183668 310.4069 226.7519 00.85823546    06

# Worst residual: 72.99 km
# MJD 59907.000000 (2022 Nov 24  0:00)
A10OETG = A10O3K7 = A10KzS9
1 79981U 22999ZZG 22328.49919926  .00000000  00000-0  00000-0 0 17585
2 79981 026.8683 284.1638 8182554 311.2923 175.6094 00.85795265    04
